GLOBALSTAR M024 [-]     
1 25883U 99043A   23335.91137169 -.00000077  00000+0 -43225-3 0  9998
2 25883  52.0004 211.5535 0000248 270.8858 174.8533 11.10159013 52306
GLOBALSTAR M027 [-]     
1 25884U 99043B   23335.24031237 -.00000067  00000+0 -11294-3 0  9994
2 25884  52.0225 275.0755 0020961 159.0460 201.1196 11.04365867 78937
GLOBALSTAR M054 [-]     
1 25885U 99043C   23335.73989243 -.00000077  00000+0 -13770-3 0  9990
2 25885  52.0106 135.8107 0003398 280.6086 187.8204 11.39202746 54837
GLOBALSTAR M053 [-]     
1 25886U 99043D   23335.40177632 -.00000057  00000+0  33450-3 0  9990
2 25886  52.0014  52.4410 0003635 195.9893 245.4637 11.27652387 55845
GLOBALSTAR M058 [-]     
1 25907U 99049A   23335.86213492 -.00000058  00000+0  35586-3 0  9998
2 25907  51.9908 173.3620 0001384 263.7599  96.3078 11.93170982474296
GLOBALSTAR M050 [-]     
1 25908U 99049B   23335.89116779 -.00000141  00000+0 -59279-3 0  9991
2 25908  51.9981 223.0434 0009319 356.0008  98.1653 12.07423552 84871
GLOBALSTAR M033 [-]     
1 25909U 99049C   23335.72518010 -.00000076  00000+0  14835-3 0  9993
2 25909  51.9886 134.2478 0011617 189.2057 170.8578 12.20260134466958
GLOBALSTAR M055 [-]     
1 25910U 99049D   23335.83610571 -.00000065  00000+0  24794-3 0  9995
2 25910  51.9991 172.0987 0007910  48.4041 311.7488 12.29391844 98995
